{
  "type": "FeatureCollection",
  "name": "puntos_interes",
  "crs": {
    "type": "name",
    "properties": {
      "name": "urn:ogc:def:crs:OGC:1.3:CRS84"
    }
  },
  "features": [
    {
      "type": "Feature",
      "properties": {
        "name": "Museo Iglesia Santa Clara",
        "tourism": "museum"
      },
      "geometry": {
        "type": "Point",
        "coordinates": [
          -74.0774643,
          4.5968372
        ]
      }
    },
    {
      "type": "Feature",
      "properties": {
        "name": "Entrada de Horizontes-Las Moyas",
        "tourism": "attraction"
      },
      "geometry": {
        "type": "Point",
        "coordinates": [
          -74.0465391,
          4.6593915
        ]
      }
    },
    {
      "type": "Feature",
      "properties": {
        "name": "Bogotá Marriott",
        "tourism": "hotel"
      },
      "geometry": {
        "type": "Point",
        "coordinates": [
          -74.1085721,
          4.6595407
        ]
      }
    },
    {
      "type": "Feature",
      "properties": {
        "name": "Hotel Tequendama",
        "tourism": "hotel"
      },
      "geometry": {
        "type": "Point",
        "coordinates": [
          -74.0705744,
          4.6129145
        ]
      }
    },
    {
      "type": "Feature",
      "properties": {
        "name": "Centro Comercial Puerto López",
        "tourism": "information"
      },
      "geometry": {
        "type": "Point",
        "coordinates": [
          -74.1014515,
          4.6169832
        ]
      }
    }
  ]
}