{
"type": "FeatureCollection",
"name": "rutas",
"crs": { "type": "name", "properties": { "name": "urn:ogc:def:crs:OGC:1.3:CRS84" } },
"features": [
{ "type": "Feature", "properties": { "name": "Avenida Calle 85", "highway": "secondary", "length": 17.191567965042726 }, "geometry": { "type": "LineString", "coordinates": [ [ -74.0579512, 4.6714483 ], [ -74.058091, 4.6715153 ] ] } },
{ "type": "Feature", "properties": { "name": "Avenida Carrera 7", "highway": "primary", "length": 100.27898918964605 }, "geometry": { "type": "LineString", "coordinates": [ [ -74.052285, 4.6594405 ], [ -74.0523559, 4.6593703 ], [ -74.0524885, 4.6592389 ], [ -74.0526872, 4.6590294 ], [ -74.052798, 4.6589085 ], [ -74.0529088, 4.6587875 ] ] } },
{ "type": "Feature", "properties": { "name": "Avenida Carrera 7", "highway": "primary", "length": 293.91972765242991 }, "geometry": { "type": "LineString", "coordinates": [ [ -74.0677141, 4.6200653 ], [ -74.067848, 4.6197577 ], [ -74.0680222, 4.6193706 ], [ -74.0680754, 4.6192523 ], [ -74.0681952, 4.6189687 ], [ -74.0684704, 4.6182389 ], [ -74.0685133, 4.6181263 ], [ -74.0685675, 4.6179847 ], [ -74.0686599, 4.6177671 ], [ -74.068669, 4.6177458 ], [ -74.0687123, 4.6176176 ] ] } },
{ "type": "Feature", "properties": { "name": "Avenida Calle 26", "highway": "primary", "length": 113.23383706783629 }, "geometry": { "type": "LineString", "coordinates": [ [ -74.0713442, 4.6132939 ], [ -74.0715773, 4.6137692 ], [ -74.0716289, 4.6138723 ], [ -74.0716967, 4.6140048 ], [ -74.0718084, 4.6142007 ] ] } },
{ "type": "Feature", "properties": { "name": "Avenida Carrera 7", "highway": "primary", "length": 102.72800006075062 }, "geometry": { "type": "LineString", "coordinates": [ [ -74.0634271, 4.6375782 ], [ -74.0636187, 4.6366743 ] ] } },
{ "type": "Feature", "properties": { "name": "Avenida Carrera 11", "highway": "secondary", "length": 110.691490557192 }, "geometry": { "type": "LineString", "coordinates": [ [ -74.0543726, 4.663569 ], [ -74.0545677, 4.6632904 ], [ -74.0549097, 4.6628019 ], [ -74.0549312, 4.6627711 ], [ -74.0549441, 4.6627526 ] ] } },
{ "type": "Feature", "properties": { "name": "Avenida Carrera 30", "highway": "trunk", "length": 107.82739979214917 }, "geometry": { "type": "LineString", "coordinates": [ [ -74.0777547, 4.6556069 ], [ -74.0776209, 4.6565674 ] ] } },
{ "type": "Feature", "properties": { "name": "Avenida Carrera 7", "highway": "primary", "length": 90.568920862973187 }, "geometry": { "type": "LineString", "coordinates": [ [ -74.0643828, 4.6310311 ], [ -74.064646, 4.63026 ] ] } },
{ "type": "Feature", "properties": { "name": "Avenida Carrera 7", "highway": "primary", "length": 92.823131939510489 }, "geometry": { "type": "LineString", "coordinates": [ [ -74.0591309, 4.6492406 ], [ -74.0592361, 4.6490398 ], [ -74.0595036, 4.6484931 ] ] } },
{ "type": "Feature", "properties": { "name": "Avenida Carrera 30", "highway": "trunk", "length": 298.05704591097242 }, "geometry": { "type": "LineString", "coordinates": [ [ -74.0721335, 4.6688767 ], [ -74.0714031, 4.6697162 ], [ -74.0710451, 4.67015 ], [ -74.0709465, 4.6702661 ], [ -74.0706201, 4.670665 ], [ -74.0705865, 4.6707059 ], [ -74.0705425, 4.6707624 ], [ -74.0704088, 4.6709329 ] ] } },
{ "type": "Feature", "properties": { "name": "Calle 76", "highway": "secondary", "length": 77.413006522430749 }, "geometry": { "type": "LineString", "coordinates": [ [ -74.064242, 4.6661265 ], [ -74.0642841, 4.6661534 ], [ -74.0647988, 4.6664822 ], [ -74.06483, 4.6665023 ] ] } },
{ "type": "Feature", "properties": { "name": "Avenida Carrera 7", "highway": "primary", "length": 115.39238378451542 }, "geometry": { "type": "LineString", "coordinates": [ [ -74.0613437, 4.6453213 ], [ -74.0613862, 4.6452285 ], [ -74.061416, 4.6451508 ], [ -74.0614429, 4.6450673 ], [ -74.0614955, 4.6448737 ], [ -74.0615848, 4.6445447 ], [ -74.0616395, 4.644328 ] ] } },
{ "type": "Feature", "properties": { "name": "Avenida Carrera 11", "highway": "secondary", "length": 285.38178242128669 }, "geometry": { "type": "LineString", "coordinates": [ [ -74.0486876, 4.6721612 ], [ -74.0489598, 4.6716112 ], [ -74.0491333, 4.6712601 ], [ -74.0493026, 4.6709176 ], [ -74.0493531, 4.6708177 ], [ -74.0493737, 4.670777 ], [ -74.0494286, 4.6706762 ], [ -74.0495185, 4.6705263 ], [ -74.0496818, 4.6702913 ], [ -74.0496981, 4.6702679 ], [ -74.0499352, 4.669922 ] ] } },
{ "type": "Feature", "properties": { "name": "Calle 76", "highway": "secondary", "length": 70.233959723191077 }, "geometry": { "type": "LineString", "coordinates": [ [ -74.0585796, 4.6625128 ], [ -74.0590214, 4.6627951 ], [ -74.059071, 4.6628268 ], [ -74.0591131, 4.6628537 ] ] } },
{ "type": "Feature", "properties": { "name": "Avenida Carrera 15", "highway": "secondary", "length": 101.75927203474632 }, "geometry": { "type": "LineString", "coordinates": [ [ -74.056354, 4.6677942 ], [ -74.0559533, 4.6686176 ] ] } },
{ "type": "Feature", "properties": { "name": "Calle 82", "highway": "secondary", "length": 59.861893870323811 }, "geometry": { "type": "LineString", "coordinates": [ [ -74.056354, 4.6677942 ], [ -74.0563001, 4.6677613 ], [ -74.0558934, 4.667513 ] ] } },
{ "type": "Feature", "properties": { "name": "Avenida Carrera 7", "highway": "primary", "length": 82.048887624251961 }, "geometry": { "type": "LineString", "coordinates": [ [ -74.0493685, 4.6623969 ], [ -74.0498677, 4.661852 ] ] } },
{ "type": "Feature", "properties": { "name": "Avenida Carrera 7", "highway": "primary", "length": 168.87695055830935 }, "geometry": { "type": "LineString", "coordinates": [ [ -74.0529088, 4.6587875 ], [ -74.053155, 4.6585258 ], [ -74.0532159, 4.6584491 ], [ -74.053273, 4.6583762 ], [ -74.0534191, 4.6581665 ], [ -74.0535148, 4.6580253 ], [ -74.0538203, 4.6575745 ] ] } },
{ "type": "Feature", "properties": { "name": "Calle 76", "highway": "secondary", "length": 96.532843618643483 }, "geometry": { "type": "LineString", "coordinates": [ [ -74.0529088, 4.6587875 ], [ -74.0529798, 4.6588347 ], [ -74.0536331, 4.6592697 ] ] } },
{ "type": "Feature", "properties": { "name": "Avenida Carrera 7", "highway": "primary", "length": 67.212426678086786 }, "geometry": { "type": "LineString", "coordinates": [ [ -74.0308381, 4.6978305 ], [ -74.0309731, 4.6976778 ], [ -74.0310909, 4.697523 ], [ -74.0312115, 4.6973549 ] ] } },
{ "type": "Feature", "properties": { "name": "Avenida Carrera 7", "highway": "primary", "length": 65.488726850850142 }, "geometry": { "type": "LineString", "coordinates": [ [ -74.0312115, 4.6973549 ], [ -74.031341, 4.6971412 ], [ -74.0315279, 4.6968576 ] ] } },
{ "type": "Feature", "properties": { "name": "Avenida Carrera 7", "highway": "primary", "length": 10.633378110567225 }, "geometry": { "type": "LineString", "coordinates": [ [ -74.035098, 4.6879362 ], [ -74.0351106, 4.6878414 ] ] } },
{ "type": "Feature", "properties": { "name": "Calle 66", "highway": "secondary", "length": 74.086670540647958 }, "geometry": { "type": "LineString", "coordinates": [ [ -74.0695925, 4.656434 ], [ -74.0693372, 4.6562531 ], [ -74.0690477, 4.6560479 ] ] } },
{ "type": "Feature", "properties": { "name": "Avenida Calle 63", "highway": "secondary", "length": 129.87085436082899 }, "geometry": { "type": "LineString", "coordinates": [ [ -74.0711778, 4.6507307 ], [ -74.0705179, 4.650614 ], [ -74.0701072, 4.6505414 ], [ -74.070024, 4.6505267 ] ] } },
{ "type": "Feature", "properties": { "name": "Avenida Carrera 7", "highway": "primary", "length": 125.9659054594906 }, "geometry": { "type": "LineString", "coordinates": [ [ -74.0597902, 4.6479023 ], [ -74.0598592, 4.6477599 ], [ -74.0600292, 4.6474095 ], [ -74.0600804, 4.6473128 ], [ -74.0601307, 4.6472072 ], [ -74.0601964, 4.6470812 ], [ -74.0602568, 4.6469786 ], [ -74.0603104, 4.6468961 ] ] } },
{ "type": "Feature", "properties": { "name": "Avenida Carrera 7", "highway": "primary", "length": 203.63144493196069 }, "geometry": { "type": "LineString", "coordinates": [ [ -74.0551887, 4.6551706 ], [ -74.0551554, 4.6552626 ], [ -74.0551136, 4.6553642 ], [ -74.0550542, 4.6554938 ], [ -74.0549884, 4.655626 ], [ -74.0549394, 4.6557166 ], [ -74.0548904, 4.6557992 ], [ -74.0547605, 4.6560075 ], [ -74.0546794, 4.6561269 ], [ -74.0546038, 4.656237 ], [ -74.0545093, 4.6563746 ], [ -74.0544271, 4.6564943 ], [ -74.054257, 4.6567419 ] ] } },
{ "type": "Feature", "properties": { "name": null, "highway": "secondary", "length": 36.426064092729675 }, "geometry": { "type": "LineString", "coordinates": [ [ -74.0842217, 4.6535191 ], [ -74.0842223, 4.6534642 ], [ -74.0842136, 4.6534034 ], [ -74.0841982, 4.6533459 ], [ -74.0841779, 4.6532989 ], [ -74.0841533, 4.6532517 ], [ -74.0841291, 4.6532109 ] ] } },
{ "type": "Feature", "properties": { "name": null, "highway": "secondary", "length": 39.144246506216334 }, "geometry": { "type": "LineString", "coordinates": [ [ -74.0835624, 4.6529539 ], [ -74.0834947, 4.6529663 ], [ -74.083427, 4.652983 ], [ -74.0833667, 4.6530044 ], [ -74.083325, 4.6530211 ], [ -74.0832869, 4.6530474 ], [ -74.0832557, 4.6530757 ], [ -74.0832436, 4.6530878 ] ] } },
{ "type": "Feature", "properties": { "name": "Avenida Carrera 50", "highway": "secondary", "length": 245.15217603541356 }, "geometry": { "type": "LineString", "coordinates": [ [ -74.0885416, 4.6437394 ], [ -74.0890897, 4.6433786 ], [ -74.0892464, 4.6432789 ], [ -74.0903134, 4.6425851 ], [ -74.0903445, 4.6425649 ], [ -74.0903932, 4.6425333 ] ] } },
{ "type": "Feature", "properties": { "name": "Avenida Carrera 50", "highway": "secondary", "length": 27.398840265756039 }, "geometry": { "type": "LineString", "coordinates": [ [ -74.09949, 4.6366785 ], [ -74.0996875, 4.6365303 ] ] } }
]
}
